ONEWEB-0385             
1 49311U 21090AJ  23362.32895455  .00000029  00000+0  39447-4 0  9998
2 49311  87.9201  93.9710 0001410  97.9220 262.2073 13.20770553110750
ONEWEB-0386             
1 49312U 21090AK  23362.34632045  .00000018  00000+0  12567-4 0  9997
2 49312  87.9194  93.9740 0001372 103.4546 256.6740 13.20771119110775
ONEWEB-0387             
1 49313U 21090AL  23362.33054342  .00000121  00000+0  26678-3 0  9997
2 49313  87.9200  94.0284 0001742  92.7433 267.3899 13.20769365110779
ONEWEB-0388             
1 49314U 21090AM  23362.33963455  .00000056  00000+0  10842-3 0  9995
2 49314  87.9199 124.4895 0001448 107.4347 252.6944 13.19726599107464
ONEWEB-0389             
1 50469U 21132A   23362.53273010  .00000070  00000+0  14772-3 0  9990
2 50469  87.9210 185.1327 0001652  73.9130 286.2183 13.17647515 99342
ONEWEB-0390             
1 50470U 21132B   23362.53431817  .00000106  00000+0  23874-3 0  9996
2 50470  87.9213 185.1410 0001880  84.4537 275.6809 13.17650010 99342
ONEWEB-0391             
1 50471U 21132C   23362.53590428  .00000025  00000+0  30224-4 0  9999
2 50471  87.9212 185.1103 0001384  71.6488 288.4794 13.17652443 99340
ONEWEB-0392             
1 50472U 21132D   23362.56596662 -.00000003  00000+0 -41794-4 0  9991
2 50472  87.9196 185.1302 0001613  76.4881 283.6430 13.17649145 99381
